CELESTIS-02 & TAURUS R/B
1 25160U 98007D   24185.37488997  .00000143  00000+0  12077-3 0  9990
2 25160 108.0027 331.7718 0063968 272.7483 107.6831 14.22010489369240
